[
    {
        "Altitude(m)": 624792.738389266,
        "Argument of Periapsis(deg)": 0.0,
        "Eccentricity": 0.0,
        "Inclination(deg)": 60.0,
        "Latitude(deg)": -59.14698545695957,
        "Longitude(deg)": 84.02643641109736,
        "Mean Anomaly(deg)": -98.18180000000004,
        "RAAN(deg)": 290.0,
        "Satellite Name": "Test1 1292",
        "Satellite Number": 1292,
        "Semi-Major Axis(m)": 6980739.136638005,
        "Time(s)": 0
    },
    {
        "Altitude(m)": 624842.1303890895,
        "Argument of Periapsis(deg)": 0.00010418945913296404,
        "Eccentricity": 0.0,
        "Inclination(deg)": 60.0,
        "Latitude(deg)": -59.28906867176461,
        "Longitude(deg)": 85.15593728429583,
        "Mean Anomaly(deg)": -97.56169385453819,
        "RAAN(deg)": 289.99957995086027,
        "Satellite Name": "Test1 1292",
        "Satellite Number": 1292,
        "Semi-Major Axis(m)": 6980739.136638005,
        "Time(s)": 10
    }
]